[{"OBJECT_NAME":"STARLINK-2439","OBJECT_ID":"2021-027N","EPOCH":"2026-03-09T12:15:33.450912","MEAN_MOTION":15.30194399,"ECCENTRICITY":0.00014292,"INCLINATION":53.1599,"RA_OF_ASC_NODE":153.6,"ARG_OF_PERICENTER":70.5562,"MEAN_ANOMALY":289.5594,"EPHEMERIS_TYPE":0,"CLASSIFICATION_TYPE":"U","NORAD_CAT_ID":48104,"ELEMENT_SET_NO":999,"REV_AT_EPOCH":27266,"BSTAR":0.00023865862,"MEAN_MOTION_DOT":6.714e-5,"MEAN_MOTION_DDOT":0},{"OBJECT_NAME":"OBJECT B","OBJECT_ID":"2024-153B","EPOCH":"2026-03-09T23:15:18.632160","MEAN_MOTION":15.30512917,"ECCENTRICITY":0.00113423,"INCLINATION":97.6622,"RA_OF_ASC_NODE":204.9195,"ARG_OF_PERICENTER":149.8438,"MEAN_ANOMALY":210.3457,"EPHEMERIS_TYPE":0,"CLASSIFICATION_TYPE":"U","NORAD_CAT_ID":60746,"ELEMENT_SET_NO":999,"REV_AT_EPOCH":8476,"BSTAR":0.00066193599,"MEAN_MOTION_DOT":0.00019515,"MEAN_MOTION_DDOT":0}]
